[{"OBJECT_NAME":"STARLINK-1911","OBJECT_ID":"2020-074L","EPOCH":"2026-03-10T00:00:02.999808","MEAN_MOTION":15.7196626,"ECCENTRICITY":0.00010753,"INCLINATION":53.0465,"RA_OF_ASC_NODE":276.9224,"ARG_OF_PERICENTER":50.1756,"MEAN_ANOMALY":209.8955,"EPHEMERIS_TYPE":0,"CLASSIFICATION_TYPE":"U","NORAD_CAT_ID":46749,"ELEMENT_SET_NO":999,"REV_AT_EPOCH":580,"BSTAR":0.00055147557,"MEAN_MOTION_DOT":0.00073486,"MEAN_MOTION_DDOT":0},{"OBJECT_NAME":"STARLINK-36993","OBJECT_ID":"2026-039J","EPOCH":"2026-03-09T22:00:01.999584","MEAN_MOTION":15.8386555,"ECCENTRICITY":0.00018457,"INCLINATION":42.9985,"RA_OF_ASC_NODE":53.4636,"ARG_OF_PERICENTER":254.6533,"MEAN_ANOMALY":37.2496,"EPHEMERIS_TYPE":0,"CLASSIFICATION_TYPE":"U","NORAD_CAT_ID":67994,"ELEMENT_SET_NO":999,"REV_AT_EPOCH":291,"BSTAR":-0.0072267851,"MEAN_MOTION_DOT":-0.01471008,"MEAN_MOTION_DDOT":0}]
